ION SCV-017             
1 63230U 25052W   26068.71648816  .00006457  00000+0  24539-3 0  9998
2 63230  97.4016 324.7516 0023746  44.9875 315.3282 15.26881798 54851
STARLINK-35542          
1 66064U 25235G   26068.71973560  .00047021  00000+0  15886-2 0  9992
2 66064  53.1570 245.3063 0001241  97.4324 262.6818 15.30221861 22922
